{
  "type": "FeatureCollection",
  "features": [
    {
      "type": "Feature",
      "properties": {
        "norad_id": 28051,
        "name": "IRS-P6 (RESOURCESAT-1)",
        "group": "resource",
        "lat": 21.558987257268637,
        "lon": 18.19420093186032,
        "alt_km": 816.8612590328148,
        "timestamp": "2025-12-06T18:50:09.827263+00:00",
        "meta_object_name": "IRS-P6 (RESOURCESAT-1)",
        "meta_object_id": "2003-046A",
        "meta_epoch": "2025-12-06T07:19:17.710176",
        "meta_mean_motion": 14.36070444,
        "meta_eccentricity": 0.00638236,
        "meta_inclination": 98.2187,
        "meta_ra_of_asc_node": 21.0102,
        "meta_arg_of_pericenter": 200.0411,
        "meta_mean_anomaly": 222.9995,
        "meta_ephemeris_type": 0,
        "meta_classification_type": "U",
        "meta_norad_cat_id": 28051,
        "meta_element_set_no": 999,
        "meta_rev_at_epoch": 15284,
        "meta_bstar": 0.00016106496,
        "meta_mean_motion_dot": 4.38e-06,
        "meta_mean_motion_ddot": 0,
        "tle_line1": "1 28051U 03046A   25340.30506609  .00000438  00000+0  16106-3 0  9993",
        "tle_line2": "2 28051  98.2187  21.0102 0063823 200.0411 222.9995 14.36070444152840"
      },
      "geometry": {
        "type": "Point",
        "coordinates": [
          18.19420093186032,
          21.558987257268637
        ]
      }
    },
    {
      "type": "Feature",
      "properties": {
        "norad_id": 28220,
        "name": "SHIYAN-1 (SY-1)",
        "group": "resource",
        "lat": 81.65556437807498,
        "lon": -29.117774667738864,
        "alt_km": 475.23344174547583,
        "timestamp": "2025-12-06T18:50:09.827274+00:00",
        "meta_object_name": "SHIYAN-1 (SY-1)",
        "meta_object_id": "2004-012A",
        "meta_epoch": "2025-12-06T04:18:34.684704",
        "meta_mean_motion": 15.27889666,
        "meta_eccentricity": 0.00060906,
        "meta_inclination": 97.8945,
        "meta_ra_of_asc_node": 41.3326,
        "meta_arg_of_pericenter": 350.65,
        "meta_mean_anomaly": 9.4623,
        "meta_ephemeris_type": 0,
        "meta_classification_type": "U",
        "meta_norad_cat_id": 28220,
        "meta_element_set_no": 999,
        "meta_rev_at_epoch": 18156,
        "meta_bstar": 0.00075130246,
        "meta_mean_motion_dot": 0.00020418,
        "meta_mean_motion_ddot": 0,
        "tle_line1": "1 28220U 04012A   25340.17956811  .00020418  00000+0  75130-3 0  9996",
        "tle_line2": "2 28220  97.8945  41.3326 0006090 350.6500   9.4623 15.27889666181564"
      },
      "geometry": {
        "type": "Point",
        "coordinates": [
          -29.117774667738864,
          81.65556437807498
        ]
      }
    },
    {
      "type": "Feature",
      "properties": {
        "norad_id": 28376,
        "name": "AURA",
        "group": "resource",
        "lat": 62.30622392063689,
        "lon": 127.16794292746451,
        "alt_km": 683.3604445249348,
        "timestamp": "2025-12-06T18:50:09.827286+00:00",
        "meta_object_name": "AURA",
        "meta_object_id": "2004-026A",
        "meta_epoch": "2025-12-06T06:47:54.836448",
        "meta_mean_motion": 14.60923695,
        "meta_eccentricity": 0.00011628,
        "meta_inclination": 98.3177,
        "meta_ra_of_asc_node": 290.4799,
        "meta_arg_of_pericenter": 93.0213,
        "meta_mean_anomaly": 267.112,
        "meta_ephemeris_type": 0,
        "meta_classification_type": "U",
        "meta_norad_cat_id": 28376,
        "meta_element_set_no": 999,
        "meta_rev_at_epoch": 13804,
        "meta_bstar": 0.00049116304,
        "meta_mean_motion_dot": 2.357e-05,
        "meta_mean_motion_ddot": 0,
        "tle_line1": "1 28376U 04026A   25340.28327357  .00002357  00000+0  49116-3 0  9999",
        "tle_line2": "2 28376  98.3177 290.4799 0001162  93.0213 267.1120 14.60923695138041"
      },
      "geometry": {
        "type": "Point",
        "coordinates": [
          127.16794292746451,
          62.30622392063689
        ]
      }
    },
    {
      "type": "Feature",
      "properties": {
        "norad_id": 28649,
        "name": "IRS-P5 (CARTOSAT-1)",
        "group": "resource",
        "lat": 58.42071624194602,
        "lon": -4.996995260475656,
        "alt_km": 590.0148090941148,
        "timestamp": "2025-12-06T18:50:09.827297+00:00",
        "meta_object_name": "IRS-P5 (CARTOSAT-1)",
        "meta_object_id": "2005-017A",
        "meta_epoch": "2025-12-06T00:50:47.654592",
        "meta_mean_motion": 14.90370093,
        "meta_eccentricity": 0.00016534,
        "meta_inclination": 97.5495,
        "meta_ra_of_asc_node": 6.7461,
        "meta_arg_of_pericenter": 51.3349,
        "meta_mean_anomaly": 308.8017,
        "meta_ephemeris_type": 0,
        "meta_classification_type": "U",
        "meta_norad_cat_id": 28649,
        "meta_element_set_no": 999,
        "meta_rev_at_epoch": 11504,
        "meta_bstar": 0.00035999589,
        "meta_mean_motion_dot": 3.451e-05,
        "meta_mean_motion_ddot": 0,
        "tle_line1": "1 28649U 05017A   25340.03527378  .00003451  00000+0  36000-3 0  9995",
        "tle_line2": "2 28649  97.5495   6.7461 0001653  51.3349 308.8017 14.90370093115048"
      },
      "geometry": {
        "type": "Point",
        "coordinates": [
          -4.996995260475656,
          58.42071624194602
        ]
      }
    },
    {
      "type": "Feature",
      "properties": {
        "norad_id": 28893,
        "name": "SINAH 1",
        "group": "resource",
        "lat": -75.76051359615708,
        "lon": -105.59439380227195,
        "alt_km": 690.2311017310194,
        "timestamp": "2025-12-06T18:50:09.827307+00:00",
        "meta_object_name": "SINAH 1",
        "meta_object_id": "2005-043D",
        "meta_epoch": "2025-12-06T07:49:05.922336",
        "meta_mean_motion": 14.63951553,
        "meta_eccentricity": 0.00149841,
        "meta_inclination": 98.2601,
        "meta_ra_of_asc_node": 108.866,
        "meta_arg_of_pericenter": 156.1689,
        "meta_mean_anomaly": 204.021,
        "meta_ephemeris_type": 0,
        "meta_classification_type": "U",
        "meta_norad_cat_id": 28893,
        "meta_element_set_no": 999,
        "meta_rev_at_epoch": 7230,
        "meta_bstar": 0.00020288129,
        "meta_mean_motion_dot": 1.015e-05,
        "meta_mean_motion_ddot": 0,
        "tle_line1": "1 28893U 05043D   25340.32576299  .00001015  00000+0  20288-3 0  9998",
        "tle_line2": "2 28893  98.2601 108.8660 0014984 156.1689 204.0210 14.63951553 72302"
      },
      "geometry": {
        "type": "Point",
        "coordinates": [
          -105.59439380227195,
          -75.76051359615708
        ]
      }
    },
    {
      "type": "Feature",
      "properties": {
        "norad_id": 29079,
        "name": "EROS B",
        "group": "resource",
        "lat": -40.12904055339527,
        "lon": -89.16006169655404,
        "alt_km": 375.97007857287554,
        "timestamp": "2025-12-06T18:50:09.827318+00:00",
        "meta_object_name": "EROS B",
        "meta_object_id": "2006-014A",
        "meta_epoch": "2025-12-06T07:09:41.740992",
        "meta_mean_motion": 15.65804768,
        "meta_eccentricity": 0.00017322,
        "meta_inclination": 97.3488,
        "meta_ra_of_asc_node": 96.5778,
        "meta_arg_of_pericenter": 253.3413,
        "meta_mean_anomaly": 106.7657,
        "meta_ephemeris_type": 0,
        "meta_classification_type": "U",
        "meta_norad_cat_id": 29079,
        "meta_element_set_no": 999,
        "meta_rev_at_epoch": 8979,
        "meta_bstar": 0.001931598,
        "meta_mean_motion_dot": 0.00199852,
        "meta_mean_motion_ddot": 0,
        "tle_line1": "1 29079U 06014A   25340.29839978  .00199852  00000+0  19316-2 0  9992",
        "tle_line2": "2 29079  97.3488  96.5778 0001732 253.3413 106.7657 15.65804768 89799"
      },
      "geometry": {
        "type": "Point",
        "coordinates": [
          -89.16006169655404,
          -40.12904055339527
        ]
      }
    },
    {
      "type": "Feature",
      "properties": {
        "norad_id": 29228,
        "name": "RESURS-DK 1",
        "group": "resource",
        "lat": -36.604852376882235,
        "lon": -47.018410763049424,
        "alt_km": 531.59531532031,
        "timestamp": "2025-12-06T18:50:09.827329+00:00",
        "meta_object_name": "RESURS-DK 1",
        "meta_object_id": "2006-021A",
        "meta_epoch": "2025-12-05T19:38:30.099552",
        "meta_mean_motion": 15.12100582,
        "meta_eccentricity": 0.00077897,
        "meta_inclination": 69.9338,
        "meta_ra_of_asc_node": 119.7231,
        "meta_arg_of_pericenter": 263.9017,
        "meta_mean_anomaly": 96.1261,
        "meta_ephemeris_type": 0,
        "meta_classification_type": "U",
        "meta_norad_cat_id": 29228,
        "meta_element_set_no": 999,
        "meta_rev_at_epoch": 7333,
        "meta_bstar": 0.00031090969,
        "meta_mean_motion_dot": 5.264e-05,
        "meta_mean_motion_ddot": 0,
        "tle_line1": "1 29228U 06021A   25339.81840393  .00005264  00000+0  31091-3 0  9993",
        "tle_line2": "2 29228  69.9338 119.7231 0007789 263.9017  96.1261 15.12100582 73332"
      },
      "geometry": {
        "type": "Point",
        "coordinates": [
          -47.018410763049424,
          -36.604852376882235
        ]
      }
    }
  ]
}